[{"OBJECT_NAME":"STARLINK-32550","OBJECT_ID":"2024-222T","EPOCH":"2026-03-09T13:01:26.213664","MEAN_MOTION":15.27589967,"ECCENTRICITY":0.00016256,"INCLINATION":42.9979,"RA_OF_ASC_NODE":137.2508,"ARG_OF_PERICENTER":252.2152,"MEAN_ANOMALY":107.8523,"EPHEMERIS_TYPE":0,"CLASSIFICATION_TYPE":"U","NORAD_CAT_ID":62131,"ELEMENT_SET_NO":999,"REV_AT_EPOCH":7277,"BSTAR":0.00085031734,"MEAN_MOTION_DOT":0.00023218,"MEAN_MOTION_DDOT":0},{"OBJECT_NAME":"FENGYUN 1C DEB","OBJECT_ID":"1999-025AJJ","EPOCH":"2026-03-09T18:40:58.380672","MEAN_MOTION":15.18672988,"ECCENTRICITY":0.00638575,"INCLINATION":98.7226,"RA_OF_ASC_NODE":259.4919,"ARG_OF_PERICENTER":168.3626,"MEAN_ANOMALY":191.9098,"EPHEMERIS_TYPE":0,"CLASSIFICATION_TYPE":"U","NORAD_CAT_ID":30520,"ELEMENT_SET_NO":999,"REV_AT_EPOCH":2360,"BSTAR":0.0014000942,"MEAN_MOTION_DOT":0.0003064,"MEAN_MOTION_DDOT":0}]
